{
  "norad_id": 47613,
  "name": "TJS-6",
  "history": [
    {
      "epoch": "2026-03-28T20:46:01.181280Z",
      "apogee_km": 35800.03074097076,
      "perigee_km": 35773.40363555087,
      "latitude_deg": -0.26903900072203935,
      "longitude_deg": 178.43810866037498,
      "height_km": 35781.61834638943,
      "semi_major_axis_km": 42164.85418826082,
      "eccentricity": 0.00031575,
      "inclination_deg": 0.3927,
      "raan_deg": 89.4138,
      "arg_perigee_deg": 296.7827,
      "mean_anomaly_deg": 290.0378,
      "mean_motion_rev_day": 1.00271349
    },
    {
      "epoch": "2026-03-29T03:36:48.981888Z",
      "apogee_km": 35800.02533819518,
      "perigee_km": 35773.34343922041,
      "latitude_deg": -0.2176900167533456,
      "longitude_deg": 178.4932778858788,
      "height_km": 35775.038540393485,
      "semi_major_axis_km": 42164.821388707795,
      "eccentricity": 0.0003164,
      "inclination_deg": 0.3937,
      "raan_deg": 89.4083,
      "arg_perigee_deg": 296.5966,
      "mean_anomaly_deg": 33.2099,
      "mean_motion_rev_day": 1.00271466
    },
    {
      "epoch": "2026-03-30T05:17:00.154752Z",
      "apogee_km": 35799.966737347204,
      "perigee_km": 35773.16095043271,
      "latitude_deg": -0.05335232238029479,
      "longitude_deg": 178.50403315199713,
      "height_km": 35779.13705021126,
      "semi_major_axis_km": 42164.700843889965,
      "eccentricity": 0.00031787,
      "inclination_deg": 0.3967,
      "raan_deg": 89.3833,
      "arg_perigee_deg": 297.1775,
      "mean_anomaly_deg": 58.7562,
      "mean_motion_rev_day": 1.00271896
    },
    {
      "epoch": "2026-03-30T10:25:00.610176Z",
      "apogee_km": 35799.92605154056,
      "perigee_km": 35773.14052309384,
      "latitude_deg": 0.36864850998759485,
      "longitude_deg": 178.49784973314746,
      "height_km": 35795.64941125038,
      "semi_major_axis_km": 42164.6702873172,
      "eccentricity": 0.00031763,
      "inclination_deg": 0.3973,
      "raan_deg": 89.3677,
      "arg_perigee_deg": 297.3943,
      "mean_anomaly_deg": 135.7685,
      "mean_motion_rev_day": 1.00272005
    },
    {
      "epoch": "2026-03-30T18:58:26.766048Z",
      "apogee_km": 35800.0024382421,
      "perigee_km": 35773.00694804449,
      "latitude_deg": -0.12179870017351453,
      "longitude_deg": 178.43584674281178,
      "height_km": 35787.423148284666,
      "semi_major_axis_km": 42164.6416931433,
      "eccentricity": 0.00032012,
      "inclination_deg": 0.3983,
      "raan_deg": 89.3588,
      "arg_perigee_deg": 298.0919,
      "mean_anomaly_deg": 263.7908,
      "mean_motion_rev_day": 1.00272107
    },
    {
      "epoch": "2026-03-31T18:55:56.317728Z",
      "apogee_km": 35800.07581089855,
      "perigee_km": 35772.694170317845,
      "latitude_deg": -0.12420674061905415,
      "longitude_deg": 178.4362095564471,
      "height_km": 35787.434146725194,
      "semi_major_axis_km": 42164.5219906082,
      "eccentricity": 0.0003247,
      "inclination_deg": 0.4012,
      "raan_deg": 89.3209,
      "arg_perigee_deg": 298.9395,
      "mean_anomaly_deg": 263.3418,
      "mean_motion_rev_day": 1.00272534
    },
    {
      "epoch": "2026-04-01T15:28:07.868064Z",
      "apogee_km": 35800.23035887707,
      "perigee_km": 35772.35123921634,
      "latitude_deg": 0.21290277388441026,
      "longitude_deg": 178.45606714673514,
      "height_km": 35797.67851826333,
      "semi_major_axis_km": 42164.4277990467,
      "eccentricity": 0.0003306,
      "inclination_deg": 0.4035,
      "raan_deg": 89.2923,
      "arg_perigee_deg": 299.8329,
      "mean_anomaly_deg": 211.3728,
      "mean_motion_rev_day": 1.0027287
    },
    {
      "epoch": "2026-04-02T18:51:03.208320Z",
      "apogee_km": 35800.36756029547,
      "perigee_km": 35771.95725535448,
      "latitude_deg": -0.131801359898602,
      "longitude_deg": 178.44065229780287,
      "height_km": 35787.65095935857,
      "semi_major_axis_km": 42164.299407824976,
      "eccentricity": 0.0003369,
      "inclination_deg": 0.4065,
      "raan_deg": 89.2436,
      "arg_perigee_deg": 301.2791,
      "mean_anomaly_deg": 261.8379,
      "mean_motion_rev_day": 1.00273328
    },
    {
      "epoch": "2026-04-02T20:33:45.856800Z",
      "apogee_km": 35800.40747516073,
      "perigee_km": 35771.91790114744,
      "latitude_deg": -0.2807771462120821,
      "longitude_deg": 178.44159453496263,
      "height_km": 35781.36796404822,
      "semi_major_axis_km": 42164.29968815409,
      "eccentricity": 0.00033784,
      "inclination_deg": 0.4067,
      "raan_deg": 89.2421,
      "arg_perigee_deg": 301.4631,
      "mean_anomaly_deg": 287.4035,
      "mean_motion_rev_day": 1.00273327
    },
    {
      "epoch": "2026-04-03T20:31:17.970240Z",
      "apogee_km": 35800.59719152835,
      "perigee_km": 35771.51233205107,
      "latitude_deg": -0.2849269890476385,
      "longitude_deg": 178.44576445923514,
      "height_km": 35781.48594255619,
      "semi_major_axis_km": 42164.19176178971,
      "eccentricity": 0.0003449,
      "inclination_deg": 0.4091,
      "raan_deg": 89.1999,
      "arg_perigee_deg": 303.1593,
      "mean_anomaly_deg": 286.125,
      "mean_motion_rev_day": 1.00273712
    },
    {
      "epoch": "2026-04-04T05:04:38.779680Z",
      "apogee_km": 35800.69399930116,
      "perigee_km": 35771.32245573567,
      "latitude_deg": -0.035592253347047215,
      "longitude_deg": 178.51902639816845,
      "height_km": 35776.895532223614,
      "semi_major_axis_km": 42164.14522751842,
      "eccentricity": 0.0003483,
      "inclination_deg": 0.41,
      "raan_deg": 89.1855,
      "arg_perigee_deg": 303.8961,
      "mean_anomaly_deg": 54.0935,
      "mean_motion_rev_day": 1.00273878
    },
    {
      "epoch": "2026-04-05T13:35:38.704416Z",
      "apogee_km": 35800.8109781745,
      "perigee_km": 35770.933561206,
      "latitude_deg": 0.329547557000078,
      "longitude_deg": 178.49747320129873,
      "height_km": 35800.314606750406,
      "semi_major_axis_km": 42164.00926969026,
      "eccentricity": 0.0003543,
      "inclination_deg": 0.4131,
      "raan_deg": 89.1357,
      "arg_perigee_deg": 305.9269,
      "mean_anomaly_deg": 181.2111,
      "mean_motion_rev_day": 1.00274363
    },
    {
      "epoch": "2026-04-05T20:26:23.472384Z",
      "apogee_km": 35800.73851841761,
      "perigee_km": 35770.95388068545,
      "latitude_deg": -0.2949082749309434,
      "longitude_deg": 178.46057919560957,
      "height_km": 35781.74098009849,
      "semi_major_axis_km": 42163.983199551534,
      "eccentricity": 0.0003532,
      "inclination_deg": 0.4138,
      "raan_deg": 89.1206,
      "arg_perigee_deg": 306.1945,
      "mean_anomaly_deg": 283.9295,
      "mean_motion_rev_day": 1.00274456
    },
    {
      "epoch": "2026-04-06T03:43:38.601696Z",
      "apogee_km": 35800.747176896184,
      "perigee_km": 35770.874020022675,
      "latitude_deg": -0.15513485235346253,
      "longitude_deg": 178.52630624362016,
      "height_km": 35772.794620442415,
      "semi_major_axis_km": 42163.94759845943,
      "eccentricity": 0.00035425,
      "inclination_deg": 0.4144,
      "raan_deg": 89.1095,
      "arg_perigee_deg": 306.5795,
      "mean_anomaly_deg": 33.1712,
      "mean_motion_rev_day": 1.00274583
    }
  ]
}